<?xml version="1.0" encoding="UTF-8"?>
<ndm xmlns:xsi="http://www.w3.org/2001/XMLSchema-instance" xsi:noNamespaceSchemaLocation="https://sanaregistry.org/r/ndmxml_unqualified/ndmxml-2.0.0-master-2.0.xsd">
<omm id="CCSDS_OMM_VERS" version="2.0">
<header><CREATION_DATE/><ORIGINATOR/></header><body><segment><metadata><OBJECT_NAME>KUIPER-00112</OBJECT_NAME><OBJECT_ID>2025-171U</OBJECT_ID><CENTER_NAME>EARTH</CENTER_NAME><REF_FRAME>TEME</REF_FRAME><TIME_SYSTEM>UTC</TIME_SYSTEM><MEAN_ELEMENT_THEORY>SGP4</MEAN_ELEMENT_THEORY></metadata><data><meanElements><EPOCH>2025-12-25T18:26:43.406880</EPOCH><MEAN_MOTION>14.79923593</MEAN_MOTION><ECCENTRICITY>.00087694</ECCENTRICITY><INCLINATION>51.9008</INCLINATION><RA_OF_ASC_NODE>122.4693</RA_OF_ASC_NODE><ARG_OF_PERICENTER>277.0410</ARG_OF_PERICENTER><MEAN_ANOMALY>82.9555</MEAN_ANOMALY></meanElements><tleParameters><EPHEMERIS_TYPE>0</EPHEMERIS_TYPE><CLASSIFICATION_TYPE>U</CLASSIFICATION_TYPE><NORAD_CAT_ID>65150</NORAD_CAT_ID><ELEMENT_SET_NO>999</ELEMENT_SET_NO><REV_AT_EPOCH>2197</REV_AT_EPOCH><BSTAR>.74003899E-3</BSTAR><MEAN_MOTION_DOT>.5425E-4</MEAN_MOTION_DOT><MEAN_MOTION_DDOT>0</MEAN_MOTION_DDOT></tleParameters></data></segment></body></omm>
<omm id="CCSDS_OMM_VERS" version="2.0">
<header><CREATION_DATE/><ORIGINATOR/></header><body><segment><metadata><OBJECT_NAME>KUIPER-00114</OBJECT_NAME><OBJECT_ID>2025-171V</OBJECT_ID><CENTER_NAME>EARTH</CENTER_NAME><REF_FRAME>TEME</REF_FRAME><TIME_SYSTEM>UTC</TIME_SYSTEM><MEAN_ELEMENT_THEORY>SGP4</MEAN_ELEMENT_THEORY></metadata><data><meanElements><EPOCH>2025-12-25T20:21:22.586976</EPOCH><MEAN_MOTION>14.79971100</MEAN_MOTION><ECCENTRICITY>.00085997</ECCENTRICITY><INCLINATION>51.8987</INCLINATION><RA_OF_ASC_NODE>142.1301</RA_OF_ASC_NODE><ARG_OF_PERICENTER>220.6061</ARG_OF_PERICENTER><MEAN_ANOMALY>139.4261</MEAN_ANOMALY></meanElements><tleParameters><EPHEMERIS_TYPE>0</EPHEMERIS_TYPE><CLASSIFICATION_TYPE>U</CLASSIFICATION_TYPE><NORAD_CAT_ID>65151</NORAD_CAT_ID><ELEMENT_SET_NO>999</ELEMENT_SET_NO><REV_AT_EPOCH>2170</REV_AT_EPOCH><BSTAR>.21194875E-3</BSTAR><MEAN_MOTION_DOT>.1395E-4</MEAN_MOTION_DOT><MEAN_MOTION_DDOT>0</MEAN_MOTION_DDOT></tleParameters></data></segment></body></omm>
<omm id="CCSDS_OMM_VERS" version="2.0">
<header><CREATION_DATE/><ORIGINATOR/></header><body><segment><metadata><OBJECT_NAME>KUIPER-00115</OBJECT_NAME><OBJECT_ID>2025-171W</OBJECT_ID><CENTER_NAME>EARTH</CENTER_NAME><REF_FRAME>TEME</REF_FRAME><TIME_SYSTEM>UTC</TIME_SYSTEM><MEAN_ELEMENT_THEORY>SGP4</MEAN_ELEMENT_THEORY></metadata><data><meanElements><EPOCH>2025-12-25T15:41:31.068384</EPOCH><MEAN_MOTION>14.79955005</MEAN_MOTION><ECCENTRICITY>.0009433</ECCENTRICITY><INCLINATION>51.9000</INCLINATION><RA_OF_ASC_NODE>135.4732</RA_OF_ASC_NODE><ARG_OF_PERICENTER>237.7696</ARG_OF_PERICENTER><MEAN_ANOMALY>122.2352</MEAN_ANOMALY></meanElements><tleParameters><EPHEMERIS_TYPE>0</EPHEMERIS_TYPE><CLASSIFICATION_TYPE>U</CLASSIFICATION_TYPE><NORAD_CAT_ID>65152</NORAD_CAT_ID><ELEMENT_SET_NO>999</ELEMENT_SET_NO><REV_AT_EPOCH>2178</REV_AT_EPOCH><BSTAR>.42069E-3</BSTAR><MEAN_MOTION_DOT>.2989E-4</MEAN_MOTION_DOT><MEAN_MOTION_DDOT>0</MEAN_MOTION_DDOT></tleParameters></data></segment></body></omm>
<omm id="CCSDS_OMM_VERS" version="2.0">
<header><CREATION_DATE/><ORIGINATOR/></header><body><segment><metadata><OBJECT_NAME>KUIPER-00116</OBJECT_NAME><OBJECT_ID>2025-171X</OBJECT_ID><CENTER_NAME>EARTH</CENTER_NAME><REF_FRAME>TEME</REF_FRAME><TIME_SYSTEM>UTC</TIME_SYSTEM><MEAN_ELEMENT_THEORY>SGP4</MEAN_ELEMENT_THEORY></metadata><data><meanElements><EPOCH>2025-12-25T16:22:26.123520</EPOCH><MEAN_MOTION>14.79934117</MEAN_MOTION><ECCENTRICITY>.00097441</ECCENTRICITY><INCLINATION>51.8987</INCLINATION><RA_OF_ASC_NODE>140.3902</RA_OF_ASC_NODE><ARG_OF_PERICENTER>203.0043</ARG_OF_PERICENTER><MEAN_ANOMALY>157.0484</MEAN_ANOMALY></meanElements><tleParameters><EPHEMERIS_TYPE>0</EPHEMERIS_TYPE><CLASSIFICATION_TYPE>U</CLASSIFICATION_TYPE><NORAD_CAT_ID>65153</NORAD_CAT_ID><ELEMENT_SET_NO>999</ELEMENT_SET_NO><REV_AT_EPOCH>2171</REV_AT_EPOCH><BSTAR>.52674037E-3</BSTAR><MEAN_MOTION_DOT>.3797E-4</MEAN_MOTION_DOT><MEAN_MOTION_DDOT>0</MEAN_MOTION_DDOT></tleParameters></data></segment></body></omm>
<omm id="CCSDS_OMM_VERS" version="2.0">
<header><CREATION_DATE/><ORIGINATOR/></header><body><segment><metadata><OBJECT_NAME>KUIPER-00118</OBJECT_NAME><OBJECT_ID>2025-171Y</OBJECT_ID><CENTER_NAME>EARTH</CENTER_NAME><REF_FRAME>TEME</REF_FRAME><TIME_SYSTEM>UTC</TIME_SYSTEM><MEAN_ELEMENT_THEORY>SGP4</MEAN_ELEMENT_THEORY></metadata><data><meanElements><EPOCH>2025-12-25T16:18:37.155744</EPOCH><MEAN_MOTION>14.79939823</MEAN_MOTION><ECCENTRICITY>.00012413</ECCENTRICITY><INCLINATION>51.8983</INCLINATION><RA_OF_ASC_NODE>142.8578</RA_OF_ASC_NODE><ARG_OF_PERICENTER>181.2512</ARG_OF_PERICENTER><MEAN_ANOMALY>178.8448</MEAN_ANOMALY></meanElements><tleParameters><EPHEMERIS_TYPE>0</EPHEMERIS_TYPE><CLASSIFICATION_TYPE>U</CLASSIFICATION_TYPE><NORAD_CAT_ID>65154</NORAD_CAT_ID><ELEMENT_SET_NO>999</ELEMENT_SET_NO><REV_AT_EPOCH>2168</REV_AT_EPOCH><BSTAR>.59588187E-3</BSTAR><MEAN_MOTION_DOT>.4325E-4</MEAN_MOTION_DOT><MEAN_MOTION_DDOT>0</MEAN_MOTION_DDOT></tleParameters></data></segment></body></omm>
<omm id="CCSDS_OMM_VERS" version="2.0">
<header><CREATION_DATE/><ORIGINATOR/></header><body><segment><metadata><OBJECT_NAME>KUIPER-00119</OBJECT_NAME><OBJECT_ID>2025-171Z</OBJECT_ID><CENTER_NAME>EARTH</CENTER_NAME><REF_FRAME>TEME</REF_FRAME><TIME_SYSTEM>UTC</TIME_SYSTEM><MEAN_ELEMENT_THEORY>SGP4</MEAN_ELEMENT_THEORY></metadata><data><meanElements><EPOCH>2025-12-25T08:31:43.330368</EPOCH><MEAN_MOTION>14.79949742</MEAN_MOTION><ECCENTRICITY>.0008023</ECCENTRICITY><INCLINATION>51.9008</INCLINATION><RA_OF_ASC_NODE>131.8749</RA_OF_ASC_NODE><ARG_OF_PERICENTER>232.4560</ARG_OF_PERICENTER><MEAN_ANOMALY>127.5674</MEAN_ANOMALY></meanElements><tleParameters><EPHEMERIS_TYPE>0</EPHEMERIS_TYPE><CLASSIFICATION_TYPE>U</CLASSIFICATION_TYPE><NORAD_CAT_ID>65155</NORAD_CAT_ID><ELEMENT_SET_NO>999</ELEMENT_SET_NO><REV_AT_EPOCH>2180</REV_AT_EPOCH><BSTAR>.63625E-3</BSTAR><MEAN_MOTION_DOT>.4635E-4</MEAN_MOTION_DOT><MEAN_MOTION_DDOT>0</MEAN_MOTION_DDOT></tleParameters></data></segment></body></omm>
<omm id="CCSDS_OMM_VERS" version="2.0">
<header><CREATION_DATE/><ORIGINATOR/></header><body><segment><metadata><OBJECT_NAME>KUIPER-00120</OBJECT_NAME><OBJECT_ID>2025-217A</OBJECT_ID><CENTER_NAME>EARTH</CENTER_NAME><REF_FRAME>TEME</REF_FRAME><TIME_SYSTEM>UTC</TIME_SYSTEM><MEAN_ELEMENT_THEORY>SGP4</MEAN_ELEMENT_THEORY></metadata><data><meanElements><EPOCH>2025-12-26T00:00:02.000160</EPOCH><MEAN_MOTION>14.78337299</MEAN_MOTION><ECCENTRICITY>.00033194</ECCENTRICITY><INCLINATION>51.8997</INCLINATION><RA_OF_ASC_NODE>17.7079</RA_OF_ASC_NODE><ARG_OF_PERICENTER>59.1021</ARG_OF_PERICENTER><MEAN_ANOMALY>229.6500</MEAN_ANOMALY></meanElements><tleParameters><EPHEMERIS_TYPE>0</EPHEMERIS_TYPE><CLASSIFICATION_TYPE>U</CLASSIFICATION_TYPE><NORAD_CAT_ID>65762</NORAD_CAT_ID><ELEMENT_SET_NO>999</ELEMENT_SET_NO><REV_AT_EPOCH>521</REV_AT_EPOCH><BSTAR>.42603593E-2</BSTAR><MEAN_MOTION_DOT>.31201E-3</MEAN_MOTION_DOT><MEAN_MOTION_DDOT>0</MEAN_MOTION_DDOT></tleParameters></data></segment></body></omm>
<omm id="CCSDS_OMM_VERS" version="2.0">
<header><CREATION_DATE/><ORIGINATOR/></header><body><segment><metadata><OBJECT_NAME>KUIPER-00132</OBJECT_NAME><OBJECT_ID>2025-217B</OBJECT_ID><CENTER_NAME>EARTH</CENTER_NAME><REF_FRAME>TEME</REF_FRAME><TIME_SYSTEM>UTC</TIME_SYSTEM><MEAN_ELEMENT_THEORY>SGP4</MEAN_ELEMENT_THEORY></metadata><data><meanElements><EPOCH>2025-12-25T04:22:01.057152</EPOCH><MEAN_MOTION>15.37709955</MEAN_MOTION><ECCENTRICITY>.0007842</ECCENTRICITY><INCLINATION>51.8626</INCLINATION><RA_OF_ASC_NODE>4.5499</RA_OF_ASC_NODE><ARG_OF_PERICENTER>58.4262</ARG_OF_PERICENTER><MEAN_ANOMALY>301.7489</MEAN_ANOMALY></meanElements><tleParameters><EPHEMERIS_TYPE>0</EPHEMERIS_TYPE><CLASSIFICATION_TYPE>U</CLASSIFICATION_TYPE><NORAD_CAT_ID>65763</NORAD_CAT_ID><ELEMENT_SET_NO>999</ELEMENT_SET_NO><REV_AT_EPOCH>1395</REV_AT_EPOCH><BSTAR>.10391E-2</BSTAR><MEAN_MOTION_DOT>.38927E-3</MEAN_MOTION_DOT><MEAN_MOTION_DDOT>0</MEAN_MOTION_DDOT></tleParameters></data></segment></body></omm>

</ndm>
