KUIPER-00112            
1 65150U 25171U   25359.76855795  .00005425  00000+0  74004-3 0  9992
2 65150  51.9008 122.4693 0008769 277.0410  82.9555 14.79923593 21975
KUIPER-00114            
1 65151U 25171V   25359.84817809  .00001395  00000+0  21195-3 0  9991
2 65151  51.8987 142.1301 0008599 220.6061 139.4261 14.79971100 21703
KUIPER-00115            
1 65152U 25171W   25359.65383181  .00002989  00000+0  42069-3 0  9995
2 65152  51.9000 135.4732 0009433 237.7696 122.2352 14.79955005 21780
KUIPER-00116            
1 65153U 25171X   25359.68224680  .00003797  00000+0  52674-3 0  9998
2 65153  51.8987 140.3902 0009744 203.0043 157.0484 14.79934117 21711
KUIPER-00118            
1 65154U 25171Y   25359.67959671  .00004325  00000+0  59588-3 0  9992
2 65154  51.8983 142.8578 0001241 181.2512 178.8448 14.79939823 21682
KUIPER-00119            
1 65155U 25171Z   25359.35536262  .00004635  00000+0  63625-3 0  9996
2 65155  51.9008 131.8749 0008023 232.4560 127.5674 14.79949742 21804
KUIPER-00120            
1 65762U 25217A   25360.00002315  .00031201  00000+0  42604-2 0  9994
2 65762  51.8997  17.7079 0003319  59.1021 229.6500 14.78337299  5217
KUIPER-00132            
1 65763U 25217B   25359.18195668  .00038927  00000+0  10391-2 0  9996
2 65763  51.8626   4.5499 0007842  58.4262 301.7489 15.37709955 13957
